NORAD_CAT_ID,OBJECT_NAME,OBJECT_TYPE,EPOCH,MEAN_MOTION,ECCENTRICITY,INCLINATION,RA_OF_ASC_NODE,ARG_OF_PERICENTER,MEAN_ANOMALY,BSTAR,MEAN_MOTION_DOT,MEAN_MOTION_DDOT,TLE_LINE0,TLE_LINE1,TLE_LINE2,SEMIMAJOR_AXIS,PERIOD,APOGEE,PERIGEE,DECAYED
55297.0,STARLINK-5284,PAYLOAD,2024-01-02 19:04:45,14.98330087,0.0002717,69.9982,233.6418,266.3115,93.7733,5.3626e-05,5.47e-06,0.0,0 STARLINK-5284,1 55297U 23010AE  24002.79497614  .00000547  00000-0  53626-4 0  9991,2 55297  69.9982 233.6418 0002717 266.3115  93.7733 14.98330087 53598,6950.193,96.107,573.946,570.169,0.0
55297.0,STARLINK-5284,PAYLOAD,2024-01-02 22:17:01,14.98330969,0.0002692,69.9983,233.3051,266.4222,93.6629,6.2853e-05,6.57e-06,0.0,0 STARLINK-5284,1 55297U 23010AE  24002.92849522  .00000657  00000-0  62853-4 0  9999,2 55297  69.9983 233.3051 0002692 266.4222  93.6629 14.98330969 53920,6950.19,96.107,573.926,570.184,0.0
55297.0,STARLINK-5284,PAYLOAD,2024-01-03 01:29:18,14.98331851,0.0002692,69.9983,232.9694,265.5288,94.5563,6.6073e-05,6.95e-06,0.0,0 STARLINK-5284,1 55297U 23010AE  24003.06201430  .00000695  00000-0  66073-4 0  9995,2 55297  69.9983 232.9694 0002692 265.5288  94.5563 14.98331851 53940,6950.187,96.107,573.923,570.181,0.0
55297.0,STARLINK-5284,PAYLOAD,2024-01-03 19:06:46,14.98332387,0.000252,69.9989,231.1184,264.5257,95.5615,-5.6225e-05,-7.64e-06,0.0,0 STARLINK-5284,1 55297U 23010AE  24003.79637666 -.00000764  00000-0 -56225-4 0  9996,2 55297  69.9989 231.1184 0002520 264.5257  95.5615 14.98332387 53748,6950.186,96.107,573.802,570.299,0.0
55297.0,STARLINK-5284,PAYLOAD,2024-01-03 22:19:03,14.98331958,0.0002524,69.9989,230.7817,264.1766,95.9105,-5.8468e-05,-7.91e-06,0.0,0 STARLINK-5284,1 55297U 23010AE  24003.92989673 -.00000791  00000-0 -58468-4 0  9990,2 55297  69.9989 230.7817 0002524 264.1766  95.9105 14.98331958 54079,6950.187,96.107,573.806,570.298,0.0
55297.0,STARLINK-5284,PAYLOAD,2024-01-03 23:55:11,14.98331655,0.0002527,69.9988,230.6134,264.4991,95.5879,-6.0914e-05,-8.2e-06,0.0,0 STARLINK-5284,1 55297U 23010AE  24003.99665690 -.00000820  00000-0 -60914-4 0  9999,2 55297  69.9988 230.6134 0002527 264.4991  95.5879 14.98331655 54084,6950.188,96.107,573.809,570.296,0.0
55297.0,STARLINK-5284,PAYLOAD,2024-01-04 20:44:55,14.98332745,0.0002528,69.9987,228.4252,262.9073,97.1798,-8.0094e-06,-1.89e-06,0.0,0 STARLINK-5284,1 55297U 23010AE  24004.86453304 -.00000189  00000-0 -80094-5 0  9993,2 55297  69.9987 228.4252 0002528 262.9073  97.1798 14.98332745 53903,6950.184,96.107,573.806,570.292,0.0
55297.0,STARLINK-5284,PAYLOAD,2024-01-04 22:21:03,14.98332724,0.0002526,69.9987,228.2569,262.8504,97.2367,-7.6513e-06,-1.84e-06,0.0,0 STARLINK-5284,1 55297U 23010AE  24004.93129292 -.00000184  00000-0 -76513-5 0  9993,2 55297  69.9987 228.2569 0002526 262.8504  97.2367 14.98332724 54224,6950.184,96.107,573.805,570.294,0.0
55297.0,STARLINK-5284,PAYLOAD,2024-01-05 14:22:24,14.98328299,0.0002552,69.9984,226.5731,266.5562,93.5305,6.1772e-06,-1.9e-07,0.0,0 STARLINK-5284,1 55297U 23010AE  24005.59889490 -.00000019  00000-0  61772-5 0  9996,2 55297  69.9984 226.5731 0002552 266.5562  93.5305 14.98328299 54321,6950.198,96.107,573.837,570.289,0.0
55297.0,STARLINK-5284,PAYLOAD,2024-01-05 22:23:04,14.98328306,0.0002546,69.9985,225.7314,265.7791,94.3077,6.1022e-06,-2e-07,0.0,0 STARLINK-5284,1 55297U 23010AE  24005.93269495 -.00000020  00000-0  61022-5 0  9991,2 55297  69.9985 225.7314 0002546 265.7791  94.3077 14.98328306 54377,6950.198,96.107,573.833,570.294,0.0
55297.0,STARLINK-5284,PAYLOAD,2024-01-05 23:59:12,14.9832824,0.0002542,69.9985,225.5631,265.7205,94.3663,5.3172e-06,-3e-07,0.0,0 STARLINK-5284,1 55297U 23010AE  24005.99945506 -.00000030  00000-0  53172-5 0  9999,2 55297  69.9985 225.5631 0002542 265.7205  94.3663 14.98328240 54078,6950.198,96.107,573.83,570.297,0.0
55297.0,STARLINK-5284,PAYLOAD,2024-01-06 22:25:05,14.98327659,0.0002481,69.9986,223.2055,262.7109,97.3768,-2.6824e-05,-4.13e-06,0.0,0 STARLINK-5284,1 55297U 23010AE  24006.93409662 -.00000413  00000-0 -26824-4 0  9991,2 55297  69.9986 223.2055 0002481 262.7109  97.3768 14.98327659 54528,6950.2,96.107,573.789,570.341,0.0
55297.0,STARLINK-5284,PAYLOAD,2024-01-07 00:01:13,14.98328096,0.0002525,69.9985,223.0372,265.5456,94.5415,-2.4313e-05,-3.83e-06,0.0,0 STARLINK-5284,1 55297U 23010AE  24007.00085645 -.00000383  00000-0 -24313-4 0  9998,2 55297  69.9985 223.0372 0002525 265.5456  94.5415 14.98328096 54223,6950.199,96.107,573.819,570.309,0.0
55297.0,STARLINK-5284,PAYLOAD,2024-01-07 14:26:26,14.9833017,0.0002608,69.9983,221.5221,267.2325,92.8535,9.9984e-06,2.6e-07,0.0,0 STARLINK-5284,1 55297U 23010AE  24007.60169429  .00000026  00000-0  99984-5 0  9996,2 55297  69.9983 221.5221 0002608 267.2325  92.8535 14.98330170 54627,6950.192,96.107,573.87,570.245,0.0
55297.0,STARLINK-5284,PAYLOAD,2024-01-07 22:27:06,14.9833059,0.0002595,69.9985,220.6808,267.413,92.6732,1.6759e-05,1.07e-06,0.0,0 STARLINK-5284,1 55297U 23010AE  24007.93549378  .00000107  00000-0  16759-4 0  9995,2 55297  69.9985 220.6808 0002595 267.4130  92.6732 14.98330590 54679,6950.191,96.107,573.86,570.252,0.0
55297.0,STARLINK-5284,PAYLOAD,2024-01-08 00:03:14,14.98330784,0.0002621,69.9985,220.5127,268.5997,91.4862,1.7942e-05,1.21e-06,0.0,0 STARLINK-5284,1 55297U 23010AE  24008.00225364  .00000121  00000-0  17942-4 0  9991,2 55297  69.9985 220.5127 0002621 268.5997  91.4862 14.98330784 54378,6950.19,96.107,573.877,570.234,0.0
55297.0,STARLINK-5284,PAYLOAD,2024-01-08 14:28:27,14.98330138,0.0002645,69.9985,218.9975,271.1536,88.932,2.9174e-05,2.55e-06,0.0,0 STARLINK-5284,1 55297U 23010AE  24008.60309358  .00000255  00000-0  29174-4 0  9991,2 55297  69.9985 218.9975 0002645 271.1536  88.9320 14.98330138 54772,6950.192,96.107,573.896,570.219,0.0
55297.0,STARLINK-5284,PAYLOAD,2024-01-08 22:29:07,14.98331035,0.0002623,69.9986,218.1559,271.3931,88.6927,3.8286e-05,3.64e-06,0.0,0 STARLINK-5284,1 55297U 23010AE  24008.93689253  .00000364  00000-0  38286-4 0  9997,2 55297  69.9986 218.1559 0002623 271.3931  88.6927 14.98331035 54823,6950.19,96.107,573.878,570.232,0.0
55297.0,STARLINK-5284,PAYLOAD,2024-01-09 00:05:15,14.98331623,0.0002619,69.9987,217.9879,270.7035,89.3824,4.2415e-05,4.13e-06,0.0,0 STARLINK-5284,1 55297U 23010AE  24009.00365193  .00000413  00000-0  42415-4 0  9994,2 55297  69.9987 217.9879 0002619 270.7035  89.3824 14.98331623 54523,6950.188,96.107,573.873,570.233,0.0
55297.0,STARLINK-5284,PAYLOAD,2024-01-09 14:30:28,14.98332088,0.0002584,69.9989,216.4733,272.3493,87.737,9.3083e-06,1.8e-07,0.0,0 STARLINK-5284,1 55297U 23010AE  24009.60449179  .00000018  00000-0  93083-5 0  9996,2 55297  69.9989 216.4733 0002584 272.3493  87.7370 14.98332088 54923,6950.186,96.107,573.847,570.256,0.0
55297.0,STARLINK-5284,PAYLOAD,2024-01-09 22:31:08,14.98331927,0.0002593,69.9988,215.6317,271.3183,88.7679,5.2115e-06,-3.1e-07,0.0,0 STARLINK-5284,1 55297U 23010AE  24009.93829133 -.00000031  00000-0  52115-5 0  9991,2 55297  69.9988 215.6317 0002593 271.3183  88.7679 14.98331927 54975,6950.187,96.107,573.854,570.25,0.0
55297.0,STARLINK-5284,PAYLOAD,2024-01-10 00:07:16,14.9833264,0.0002587,69.9989,215.4636,271.3582,88.7281,1.2556e-05,5.7e-07,0.0,0 STARLINK-5284,1 55297U 23010AE  24010.00505053  .00000057  00000-0  12556-4 0  9994,2 55297  69.9989 215.4636 0002587 271.3582  88.7281 14.98332640 54673,6950.185,96.107,573.848,570.252,0.0
55297.0,STARLINK-5284,PAYLOAD,2024-01-11 14:34:29,14.9832987,0.0002527,69.9992,211.4241,267.8109,92.276,-1.7247e-05,-2.99e-06,0.0,0 STARLINK-5284,1 55297U 23010AE  24011.60729109 -.00000299  00000-0 -17247-4 0  9993,2 55297  69.9992 211.4241 0002527 267.8109  92.2760 14.98329870 55229,6950.193,96.107,573.815,570.302,0.0
55297.0,STARLINK-5284,PAYLOAD,2024-01-11 19:22:54,14.98329228,0.0002539,69.9992,210.9191,266.7889,93.2979,-2.3077e-05,-3.68e-06,0.0,0 STARLINK-5284,1 55297U 23010AE  24011.80757152 -.00000368  00000-0 -23077-4 0  9999,2 55297  69.9992 210.9191 0002539 266.7889  93.2979 14.98329228 54941,6950.195,96.107,573.825,570.296,0.0
55297.0,STARLINK-5284,PAYLOAD,2024-01-11 20:59:02,14.98329277,0.0002542,69.9992,210.7507,267.0281,93.0587,-2.2328e-05,-3.59e-06,0.0,0 STARLINK-5284,1 55297U 23010AE  24011.87433148 -.00000359  00000-0 -22328-4 0  9990,2 55297  69.9992 210.7507 0002542 267.0281  93.0587 14.98329277 55267,6950.195,96.107,573.827,570.293,0.0
55297.0,STARLINK-5284,PAYLOAD,2024-01-12 14:36:31,14.98325723,0.0002479,69.9995,208.8993,263.0948,96.9929,-2.6334e-05,-4.07e-06,0.0,0 STARLINK-5284,1 55297U 23010AE  24012.60869440 -.00000407  00000-0 -26334-4 0  9995,2 55297  69.9995 208.8993 0002479 263.0948  96.9929 14.98325723 55378,6950.206,96.107,573.794,570.348,0.0
55297.0,STARLINK-5284,PAYLOAD,2024-01-12 19:24:55,14.98324748,0.0002498,69.9997,208.3945,263.4495,96.638,-3.6379e-05,-5.27e-06,0.0,0 STARLINK-5284,1 55297U 23010AE  24012.80897581 -.00000527  00000-0 -36379-4 0  9997,2 55297  69.9997 208.3945 0002498 263.4495  96.6380 14.98324748 55097,6950.209,96.107,573.81,570.338,0.0
55297.0,STARLINK-5284,PAYLOAD,2024-01-12 22:37:11,14.98324559,0.0002509,69.9996,208.0579,264.0696,96.0177,-3.8047e-05,-5.47e-06,0.0,0 STARLINK-5284,1 55297U 23010AE  24012.94249641 -.00000547  00000-0 -38047-4 0  9996,2 55297  69.9996 208.0579 0002509 264.0696  96.0177 14.98324559 55424,6950.21,96.107,573.819,570.331,0.0
55297.0,STARLINK-5284,PAYLOAD,2024-01-13 14:38:32,14.98328836,0.000261,69.9994,206.3742,267.7969,92.2892,8.3023e-06,6e-08,0.0,0 STARLINK-5284,1 55297U 23010AE  24013.61009351  .00000006  00000-0  83023-5 0  9996,2 55297  69.9994 206.3742 0002610 267.7969  92.2892 14.98328836 55526,6950.196,96.107,573.875,570.247,0.0
55297.0,STARLINK-5284,PAYLOAD,2024-01-13 19:26:56,14.98328681,0.0002624,69.9996,205.8696,268.4908,91.595,6.5941e-06,-1.4e-07,0.0,0 STARLINK-5284,1 55297U 23010AE  24013.81037387 -.00000014  00000-0  65941-5 0  9997,2 55297  69.9996 205.8696 0002624 268.4908  91.5950 14.98328681 55240,6950.197,96.107,573.886,570.238,0.0
